CUTE-1 (CO-55)          
1 27844U 03031E   23245.53403516  .00000402  00000+0  19840-3 0  9995
2 27844  98.6800 251.6658 0008527 260.7623  99.2591 14.22860539 46767
CUBESAT XI-IV (CO-57)   
1 27848U 03031J   23245.57202957  .00000335  00000+0  17022-3 0  9994
2 27848  98.6837 252.0888 0008458 278.0796  81.9422 14.22360406 46508
CUBESAT XI-V            
1 28895U 05043F   23245.07168483  .00001965  00000+0  36722-3 0  9990
2 28895  98.1635  16.5986 0016125 185.9548 174.1466 14.65950414952077
CUTE-1.7+APD II (CO-65) 
1 32785U 08021C   23244.82257879  .00003715  00000+0  36326-3 0  9997
2 32785  97.7129 209.1956 0011186 200.7637 159.3130 14.92902314832321
AAUSAT-II               
1 32788U 08021F   23244.42721361  .00011927  00000+0  83192-3 0  9995
2 32788  97.5659 222.2537 0009964  94.8536 265.3829 15.05497034834577
DELFI-C3 (DO-64)        
1 32789U 08021G   23245.57771246  .00099381  00000+0  18381-2 0  9997
2 32789  97.2958 267.1336 0007417 163.8144 196.3345 15.48657680839310
SEEDS II (CO-66)        
1 32791U 08021J   23245.46508856  .00006835  00000+0  58765-3 0  9996
2 32791  97.6627 215.1554 0013239 143.5705 216.6421 14.97660174833301
SWISSCUBE               
1 35932U 09051B   23245.40554683  .00001187  00000+0  26932-3 0  9999
2 35932  98.5096 117.5604 0008407 122.3924 237.8088 14.57918875740469
BEESAT-1                
1 35933U 09051C   23245.57885509  .00001015  00000+0  23250-3 0  9992
2 35933  98.5022 118.9858 0006494 131.0784 229.0976 14.57803166740566
ITUPSAT1                
1 35935U 09051E   23245.46382405  .00000936  00000+0  21957-3 0  9992
2 35935  98.5120 118.7845 0008662 138.8095 221.3757 14.56838934740214
TISAT 1                 
1 36799U 10035E   23245.42999400  .00005046  00000+0  44214-3 0  9998
2 36799  98.1240 118.0873 0012278  79.0523 281.2078 14.97101244713781
M-CUBED & EXP-1 PRIME   
1 37855U 11061F   23245.23626163  .00026363  00000+0  73778-3 0  9996
2 37855 101.7095 250.6706 0110310 162.8581 197.6418 15.30705538648333
AEROCUBE 4.5A           
1 38767U 12048K   23245.14027118  .00008229  00000+0  55447-3 0  9994
2 38767  64.6641 157.2066 0112834 128.3682 232.7639 15.02178113216949
AEROCUBE 4.5B           
1 38768U 12048L   23245.33376510  .00014825  00000+0  82010-3 0  9994
2 38768  64.6625  97.8362 0091657 121.0899 239.9257 15.10492456217617
STRAND-1                
1 39090U 13009E   23245.50465213  .00000383  00000+0  14747-3 0  9995
2 39090  98.3877  76.7432 0009716  39.9680 320.2219 14.35673348550814
BRITE-AUSTRIA           
1 39091U 13009F   23245.51006589  .00000229  00000+0  94384-4 0  9999
2 39091  98.3909  75.9868 0011295  45.6750 314.5360 14.35536076550844
BEESAT-3                
1 39135U 13015F   23244.97327827  .00060653  00000+0  10295-2 0  9999
2 39135  64.8537  77.8782 0017765 247.1865 112.7401 15.50951066573812
BEESAT-2                
1 39136U 13015G   23245.52667222  .00047579  00000+0  93824-3 0  9990
2 39136  64.8640  89.1306 0027759 263.1517  96.6465 15.46498299573619
NEE-01 PEGASO           
1 39151U 13018B   23245.24187294  .00002796  00000+0  34849-3 0  9999
2 39151  98.0153 355.5882 0014702 260.3511  99.6041 14.83203069559100
ESTCUBE 1               
1 39161U 13021C   23245.44693630  .00001991  00000+0  30564-3 0  9998
2 39161  97.8665 315.5141 0010585  83.8683 276.3732 14.74631767554514
POPACS 1                
1 39268U 13055D   23245.39070031  .00017848  00000+0  38767-3 0  9992
2 39268  80.9899 117.2844 0487536 286.9845  67.8487 14.71341592517779
POPACS 2                
1 39269U 13055E   23245.26570898  .00013726  00000+0  34368-3 0  9999
2 39269  81.0087 190.1798 0599564 116.5431 249.8502 14.44885572513703
POPACS 3                
1 39270U 13055F   23245.38091679  .00006231  00000+0  18128-3 0  9998
2 39270  81.0100 232.2899 0655635 235.0960 118.6933 14.29891663491591
ZACUBE-1 (TSHEPISOSAT)  
1 39417U 13066B   23245.16835538  .00005029  00000+0  57186-3 0  9990
2 39417  97.6922 204.1897 0055434  35.9915 324.5013 14.85554021528621
WNISAT-1                
1 39423U 13066H   23245.55556475  .00000968  00000+0  19657-3 0  9998
2 39423  97.6947  98.1157 0171853 194.2328 165.3997 14.54336913518687
TRITON-1                
1 39427U 13066M   23245.36325938  .00003159  00000+0  47445-3 0  9990
2 39427  97.8325 168.3304 0105577 290.6939  68.2976 14.71511146523705
DELFI-N3XT              
1 39428U 13066N   23245.27527416  .00005828  00000+0  82575-3 0  9994
2 39428  97.8300 167.4051 0107584 302.2238  56.8576 14.73473570523484
GOMX-1                  
1 39430U 13066Q   23245.52618941  .00002420  00000+0  42095-3 0  9997
2 39430  97.7680 132.1370 0146350  88.5982 273.1980 14.62139250520835
CUBEBUG-2 (LO-74)       
1 39440U 13066AA  23245.32638899  .00003115  00000+0  39958-3 0  9996
2 39440  97.7767 191.6049 0075817 135.2132 225.5235 14.79929518525562
NEE-02 KRYSAOR          
1 39441U 13066AB  23245.27403608  .00001988  00000+0  27011-3 0  9992
2 39441  97.7872 188.2447 0078314 152.8969 207.6364 14.77810305525231
FUNCUBE-1 (AO-73)       
1 39444U 13066AE  23245.37610398  .00006459  00000+0  70145-3 0  9996
2 39444  97.6785 207.0105 0053057  20.3291 340.0021 14.87412795527114
UWE-3                   
1 39446U 13066AG  23245.31603054  .00003715  00000+0  45061-3 0  9994
2 39446  97.7408 197.7114 0066741  86.8595 274.0253 14.82577920525851
BRITE-CA1 (TORONTO)     
1 40020U 14033L   23245.37837305  .00001084  00000+0  18714-3 0  9995
2 40020  97.8368  28.6789 0083825 294.3082  64.9387 14.68175570492470
DUCHIFAT-1              
1 40021U 14033M   23245.34324003  .00008251  00000+0  68152-3 0  9993
2 40021  98.0676 211.8720 0012663  27.5430 332.6460 14.99180490500740
NANOSATC-BR1            
1 40024U 14033Q   23245.35198457  .00007154  00000+0  62737-3 0  9993
2 40024  98.0335 202.4861 0011412  35.9165 324.2820 14.96910937499957
QB50P1                  
1 40025U 14033R   23245.54289507  .00005975  00000+0  55554-3 0  9990
2 40025  98.0017 193.7422 0012495  46.4216 313.8039 14.94674803499690
QB50P2                  
1 40032U 14033Y   23245.57638513  .00005258  00000+0  50057-3 0  9993
2 40032  97.9699 187.1718 0011842  44.0605 316.1556 14.93802260499529
PERSEUS-M2              
1 40037U 14033AD  23245.24081191  .00001954  00000+0  21483-3 0  9996
2 40037  97.9061 170.7570 0015355  69.5285 290.7579 14.88706725498816
PERSEUS-M1              
1 40039U 14033AF  23245.21217306  .00002141  00000+0  23675-3 0  9998
2 40039  97.8909 167.5481 0015174  69.0473 291.2365 14.88379094498674
POLYITAN-1              
1 40042U 14033AJ  23245.29562766  .00007102  00000+0  64111-3 0  9995
2 40042  98.0141 195.6031 0014192  38.4894 321.7335 14.95751683499569
TIGRISAT                
1 40043U 14033AK  23245.43276717  .00002715  00000+0  38314-3 0  9991
2 40043  97.6713  56.5953 0057808 161.6079 198.7240 14.76845265494812
AEROCUBE 6A             
1 40045U 14033AM  23245.48908980  .00004577  00000+0  60490-3 0  9990
2 40045  97.6598  66.5554 0054790 145.2998 215.1809 14.79395042495056
AEROCUBE 6B             
1 40046U 14033AN  23245.55006346  .00004691  00000+0  60915-3 0  9993
2 40046  97.6548  65.1151 0053466 141.8449 218.6568 14.80171442495094
UKUBE-1                 
1 40074U 14037F   23245.21270852  .00004920  00000+0  52907-3 0  9993
2 40074  98.3368 153.7539 0002642 318.5091  41.5923 14.89021727495719
BRITE-PL2 (HEWELIUSZ)   
1 40119U 14049B   23245.23633548  .00002165  00000+0  24801-3 0  9994
2 40119  97.8827 341.7398 0015519 231.7693 128.2126 14.86915736489615
GRIFEX                  
1 40379U 15003D   23245.49117845  .00059303  00000+0  10398-2 0  9999
2 40379  99.0801 201.3039 0069590   6.3783 353.8331 15.47640487475307
CP10 (EXOCUBE)          
1 40380U 15003E   23245.34615179  .00035963  00000+0  88241-3 0  9997
2 40380  99.0840 189.5840 0091173  43.2577 317.5774 15.36343030474558
EXACTVIEW 9             
1 40936U 15052G   23243.11099261  .00002641  00000+0  26350-3 0  9999
2 40936   6.0030 272.0785 0010759 270.7790  89.1105 14.78858219428368
AEROCUBE 5C             
1 40965U 15058B   23244.89724404  .00004697  00000+0  50872-3 0  9996
2 40965  64.7732 167.4818 0165789  43.6989 317.7104 14.79844077214196
AEROCUBE 7              
1 40966U 15058C   23245.19254689  .00005813  00000+0  61291-3 0  9992
2 40966  64.7718 162.3908 0163051  43.2879 318.0905 14.80900885214262
GALASSIA                
1 41170U 15077E   23245.56123669  .00074015  00000+0  13112-2 0  9993
2 41170  14.9875 359.2437 0007297  93.2504 266.8656 15.48376681428035
VELOX-II                
1 41171U 15077F   23244.85414787  .00025574  00000+0  80213-3 0  9992
2 41171  14.9896 119.2191 0005156 207.1049 152.9005 15.30750060427010
HORYU-4                 
1 41340U 16012D   23245.14663017  .00007615  00000+0  46312-3 0  9993
2 41340  31.0041  47.8957 0011146 297.4800  62.4704 15.09034237414350
E-ST@R-II               
1 41459U 16025D   23245.52828250  .00037868  00000+0  96083-3 0  9995
2 41459  98.1770  94.9392 0096836 188.1589 171.8082 15.34813956404746
AAUSAT 4                
1 41460U 16025E   23245.36745420  .01516656  14297-2  23835-2 0  9994
2 41460  98.1324 112.2610 0017355 137.4491 222.8135 16.03977710405897
BEESAT-4                
1 41619U 16040W   23245.10784504  .00352877  00000+0  14281-2 0  9996
2 41619  97.1396 296.4126 0004422 216.8656 143.2312 15.85411618388942
RAVAN                   
1 41849U 16067B   23245.40049777  .00007716  00000+0  51957-3 0  9990
2 41849  98.0453  43.1670 0014887 289.1237  70.8378 15.06916359372390
CELTEE 1                
1 41850U 16067C   23245.36149110  .00005037  00000+0  38579-3 0  9998
2 41850  98.0752  36.5369 0001504  92.7632 267.3764 15.02340415372004
OPTICUBE 04             
1 41851U 16067D   23245.31446927  .00002731  00000+0  22293-3 0  9994
2 41851  98.0654  34.2913 0014631 299.0579  60.9178 15.00253149371890
AEROCUBE 8D             
1 41852U 16067E   23245.37662401  .00006194  00000+0  46727-3 0  9993
2 41852  98.0765  35.7450 0005818 357.1800   2.9390 15.02810442371952
AEROCUBE 8C             
1 41853U 16067F   23245.37469772  .00006238  00000+0  47176-3 0  9998
2 41853  98.0569  35.0772 0008957 291.7451  68.2819 15.02697710371948
PROMETHEUS 2-1          
1 41854U 16067G   23245.35263194  .00009346  00000+0  62589-3 0  9995
2 41854  98.0782  38.7528 0015502 319.1213  40.8849 15.07050352372108
PROMETHEUS 2-3          
1 41855U 16067H   23245.41304580  .00009123  00000+0  61166-3 0  9991
2 41855  98.0703  38.5953 0013212 329.2055  30.8395 15.07038898372111
INS-1B                  
1 41954U 17008G   23245.40492361  .00182474  00000+0  12293-2 0  9998
2 41954  97.1860 307.6188 0002364 142.5052 217.6378 15.74596335364952
DIDO-2                  
1 42000U 17008BE  23245.42399169  .00025168  00000+0  56845-3 0  9993
2 42000  97.1935 300.4119 0006973 114.7055 245.4919 15.43156674363837
PEASSS                  
1 42015U 17008BV  23245.42629723  .00085275  00000+0  97522-3 0  9993
2 42015  97.1969 309.6156 0003530 115.8499 244.3123 15.61875227364874
UCLSAT                  
1 42765U 17036A   23244.38816392  .00097417  00000+0  11053-2 0  9995
2 42765  97.1321 283.3227 0006888 154.0510 206.1095 15.62018097345141
AALTO-1                 
1 42775U 17036L   23245.35004031  .00021485  00000+0  56513-3 0  9996
2 42775  97.1468 273.3017 0009781 172.4880 187.6514 15.38539917344374
URSA MAIOR              
1 42776U 17036M   23245.56238296  .00024706  00000+0  59814-3 0  9998
2 42776  97.1477 275.1064 0009647 167.1753 192.9742 15.41047245344495
DIAMOND RED             
1 42783U 17036U   23245.55998949  .00032386  00000+0  68471-3 0  9995
2 42783  97.1442 278.7880 0008073 165.9557 194.1918 15.45058968344723
PEGASUS                 
1 42784U 17036V   23244.67673667  .00061319  00000+0  91775-3 0  9996
2 42784  97.1395 281.5143 0007555 156.0813 204.0794 15.54753509344833
DIAMOND GREEN           
1 42785U 17036W   23245.04384255  .00036457  00000+0  73079-3 0  9993
2 42785  97.1430 278.6200 0007868 166.2383 193.9083 15.46598790344733
DIAMOND BLUE            
1 42786U 17036X   23245.54914195  .00030468  00000+0  62605-3 0  9990
2 42786  97.1439 279.0019 0008017 164.7777 195.3716 15.45909041344804
SUCHAI                  
1 42788U 17036Z   23245.57354241  .00236220  00000+0  14305-2 0  9992
2 42788  97.1301 287.8326 0006974 161.7764 198.3753 15.76878957345401
SKCUBE                  
1 42789U 17036AA  23245.55136501  .00101512  00000+0  10898-2 0  9996
2 42789  97.1333 285.2518 0007578 151.7667 208.4005 15.63424218345152
ROBUSTA 1B              
1 42792U 17036AD  23245.57588339  .00164446  00000+0  12656-2 0  9991
2 42792  97.1296 287.1093 0006711 152.8974 207.2641 15.71483416345296
CICERO 6                
1 42793U 17036AE  23245.56554299  .00027324  00000+0  62703-3 0  9991
2 42793  97.1427 278.6836 0007383 165.7615 194.3843 15.42661016344813
CORVUS BC2              
1 42846U 17042X   23245.50455204  .00003347  00000+0  30968-3 0  9994
2 42846  97.3830  82.1692 0007681 321.9689  38.0990 14.95141595334276
CORVUS BC1              
1 42847U 17042Y   23245.49094196  .00003077  00000+0  28450-3 0  9995
2 42847  97.3821  82.5195 0007397 319.7894  40.2780 14.95233041334287
MIRATA                  
1 43015U 17073C   23245.11940856  .00013658  00000+0  82646-3 0  9992
2 43015  97.6230 130.7081 0205905 157.2871 203.7625 14.94666823312970
MAKERSAT 0              
1 43016U 17073D   23245.12074487  .00007405  00000+0  48795-3 0  9992
2 43016  97.6201 128.2795 0221812 168.5605 192.0776 14.89757745312760
CORVUS BC3              
1 43118U 18004H   23245.46002577  .00025104  00000+0  58888-3 0  9998
2 43118  97.3197 319.8748 0006369 213.3381 146.7466 15.42028330313931
CICERO 7                
1 43143U 18004AJ  23245.19715542  .00089833  00000+0  87048-3 0  9998
2 43143  97.3235 334.3647 0003659 200.7473 159.3639 15.66088212314768
GOMX-4B                 
1 43196U 18015E   23245.38806533  .00018190  00000+0  47153-3 0  9991
2 43196  97.5877  38.7602 0012577 290.0668  69.9223 15.39000268310815
GOMX-4A                 
1 43197U 18015F   23245.54119355  .00021823  00000+0  49841-3 0  9992
2 43197  97.5872  41.4390 0011830 282.3152  77.6771 15.42811177311019
CUBEBEL-1 (BSUSAT-1)    
1 43666U 18083E   23245.55507400  .00039301  00000+0  87142-3 0  9997
2 43666  97.3739 277.8828 0008875 184.2689 175.8484 15.43603859269113
CICERO 10               
1 43690U 18088A   23244.75179807  .00025913  00000+0  65656-3 0  9996
2 43690  85.0322  20.6437 0008776 308.4976  51.5487 15.39546218267268
PROXIMA I               
1 43694U 18088E   23245.33516622  .00031680  00000+0  71103-3 0  9997
2 43694  85.0261  15.5784 0010701 263.1325  96.8711 15.43173574267660
PROXIMA II              
1 43696U 18088G   23245.09687150  .00032989  00000+0  74489-3 0  9990
2 43696  85.0262  15.8048 0010780 264.2327  95.7698 15.42989415267615
SIRION PATHFINDER-2     
1 43759U 18099B   23245.42111313  .00003353  00000+0  27903-3 0  9994
2 43759  97.5644 304.9051 0013021 215.1841 144.8524 14.99278508259193
CORVUS BC4              
1 43767U 18099K   23245.41306811  .00003375  00000+0  28478-3 0  9993
2 43767  97.5593 302.7318 0010259 220.1074 139.9393 14.98761127259092
MOVE-II                 
1 43780U 18099Y   23245.45296362  .00010800  00000+0  75794-3 0  9995
2 43780  97.5651 307.9018 0007557 243.5519 116.4932 15.05310255259355
SPACEBEE-7              
1 43816U 18099BL  23244.90515077  .00007887  00000+0  57831-3 0  9994
2 43816  97.5925 308.2802 0011715 187.6002 172.5048 15.03726355258833
SPACEBEE-5              
1 43817U 18099BM  23245.43813369  .00045094  00000+0  18918-2 0  9993
2 43817  97.5848 317.9779 0005035 174.3403 185.7891 15.23328205259437
SPACEBEE-6              
1 43818U 18099BN  23245.45732932  .00013798  00000+0  89827-3 0  9996
2 43818  97.5837 311.2353 0011474 202.9649 157.1067 15.08011961259209
SHIELDS 1               
1 43850U 18104B   23245.36871649  .00008147  00000+0  28014-3 0  9991
2 43850  85.0245 117.8315 0015227  73.6225 286.6694 15.29792303261904
STF-1                   
1 43852U 18104D   23245.37942258  .00045441  00000+0  83737-3 0  9990
2 43852  85.0192 114.2239 0011705  69.9404 290.3112 15.48886267262325
ZACUBE-2                
1 43907U 18111AH  23245.52045425  .00034970  00000+0  73819-3 0  9991
2 43907  97.1237 123.4794 0010587 296.7140  63.3025 15.45063771261078
LUME 1                  
1 43908U 18111AJ  23245.51891204  .00047931  00000+0  77797-3 0  9995
2 43908  97.1231 127.9045 0007616 277.1526  82.8861 15.52565664261363
MOVE-IIB                
1 44398U 19038N   23245.48921454  .00083715  00000+0  14472-2 0  9995
2 44398  97.6632 232.5449 0011249  40.8028 319.4063 15.50605469230609
SONATE                  
1 44400U 19038Q   23245.41151635  .00011893  00000+0  50645-3 0  9999
2 44400  97.6910 224.7636 0021582  48.1324 312.1750 15.22925185229985
LUCKY-7                 
1 44406U 19038W   23245.46834450  .00016475  00000+0  63245-3 0  9994
2 44406  97.6865 226.4348 0019695  43.1885 317.0894 15.26362691230108
BEESAT 9                
1 44412U 19038AC  23245.42114122  .00030116  00000+0  91239-3 0  9996
2 44412  97.6792 228.8414 0015709  43.9292 316.3196 15.33985052229987
JAISAT-1                
1 44419U 19038F   23245.48692219  .00029108  00000+0  87506-3 0  9998
2 44419  97.6784 230.0219 0014873  40.6933 319.5417 15.34250033230371
DUCHIFAT-3              
1 44854U 19089C   23245.46794731  .00009267  00000+0  60142-3 0  9998
2 44854  36.9626 348.9692 0008167 231.8913 128.1095 15.07580022204562
EYESAT-NANO             
1 44877U 19092E   23245.50237447  .00082293  00000+0  13437-2 0  9992
2 44877  97.4550  78.1956 0006726 214.0171 146.0651 15.52263232206052
M2 PATHFINDER           
1 45727U 20037E   23245.53881065  .00002711  00000+0  25600-3 0  9995
2 45727  97.7627  59.3418 0012233  12.4445 347.7075 14.94522207172791
NETSAT-4                
1 46504U 20068U   23245.47586358  .00007508  00000+0  48334-3 0  9991
2 46504  97.7667 192.0892 0008892 266.1430  93.8781 15.08629695160557
NETSAT-3                
1 46505U 20068V   23245.51927807  .00006791  00000+0  44037-3 0  9994
2 46505  97.7654 191.9128 0007757 276.9337  83.1008 15.08406751160569
NETSAT-1                
1 46506U 20068W   23245.51459327  .00005512  00000+0  36260-3 0  9991
2 46506  97.7666 191.7549 0006314 290.7709  69.2842 15.07969762160558
NETSAT-2                
1 46507U 20068X   23245.27850224  .00007493  00000+0  48363-3 0  9993
2 46507  97.7653 191.6130 0005939 300.1056  59.9582 15.08551972160472
SAI-1 NANOCONNECT-2     
1 47701U 21015C   23245.49887099  .00089005  00000+0  11342-2 0  9992
2 47701  97.3775 331.0603 0005674 284.5289  75.5337 15.59007022140157
WILDTRACKCUBE-SIMBA     
1 47941U 21022K   23245.55344748  .00007694  00000+0  43223-3 0  9990
2 47941  97.4863 141.2341 0020613  71.4893 288.8576 15.13406450134702
BEESAT-6                
1 47957U 21022AB  23245.16756514  .00021820  00000+0  94534-3 0  9990
2 47957  97.4833 143.5469 0017875  66.8136 293.4981 15.22261827134637
SMOG-1                  
1 47964U 21022AJ  23245.20776628  .00024370  00000+0  99735-3 0  9992
2 47964  97.4881 145.8738 0015826  54.7081 305.5633 15.24199781133797
BCCSAT-1                
1 48041U 21022AK  23244.96715774  .00019645  00000+0  87277-3 0  9993
2 48041  97.4879 144.2645 0013864  57.4389 302.8184 15.21484834133640
BEESAT-5                
1 48083U 21022AM  23245.18848619  .00025725  00000+0  10546-2 0  9999
2 48083  97.4730 143.8639 0017259  65.1681 295.1349 15.24108519133804
BEESAT-7                
1 48084U 21022AN  23244.67750749  .00027117  00000+0  11506-2 0  9993
2 48084  97.4827 143.2411 0017476  66.9781 293.3296 15.22931275133290
BEESAT-8                
1 48085U 21022AP  23245.15390668  .00010936  00000+0  54084-3 0  9998
2 48085  97.4891 142.7627 0018832  67.9051 292.4180 15.17841559133856
LEDSAT                  
1 49069U 21073D   23245.47156782  .00010117  00000+0  53369-3 0  9995
2 49069  97.4765 315.0872 0022844 209.4755 150.5191 15.15521176112602
SPORT                   
1 55129U 98067UW  23245.49803954  .00188425  00000+0  74713-3 0  9992
2 55129  51.6234 279.2557 0008573  31.7498 328.4021 15.85601419 38738
